start=new Date('2022-11-23T00:00:00.000Z').valueOf();
sats=[{"DECAY_DATE":null,"SEMIMAJOR_AXIS":"6941.168","PERIAPSIS":"561.178","PERIOD":"95.920","MEAN_ANOMALY":"310.1874","CENTER_NAME":"EARTH","REV_AT_EPOCH":"1883","MEAN_MOTION_DDOT":"0.0000000000000","BSTAR":"0.00024382000000","INCLINATION":"97.6555","COUNTRY_CODE":"US","OBJECT_NAME":"STARLINK-4372","LAUNCH_DATE":"2022-07-22","TLE_LINE1":"1 53233U 22084AW  22326.70759046  .00003074  00000-0  24382-3 0  9991","EPOCH":"2022-11-22T16:58:55.815744","MEAN_MOTION":"15.01253136","RCS_SIZE":"LARGE","MEAN_MOTION_DOT":"0.00003074","MEAN_ELEMENT_THEORY":"SGP4","ECCENTRICITY":"0.00026730","TIME_SYSTEM":"UTC","ARG_OF_PERICENTER":"49.9585","EPHEMERIS_TYPE":"0","OBJECT_ID":"2022-084AW","TLE_LINE2":"2 53233  97.6555  25.7276 0002673  49.9585 310.1874 15.01253136 18833","SITE":"AFWTR","CLASSIFICATION_TYPE":"U","FILE":"3667517","REF_FRAME":"TEME","APOAPSIS":"564.888","OBJECT_TYPE":"PAYLOAD","GP_ID":"218505910","ELEMENT_SET_NO":"999","RA_OF_ASC_NODE":"25.7276","NORAD_CAT_ID":"53233"},{"DECAY_DATE":null,"SEMIMAJOR_AXIS":"6941.138","PERIAPSIS":"561.470","MEAN_ANOMALY":"302.7170","PERIOD":"95.919","CENTER_NAME":"EARTH","BSTAR":"0.00021395000000","MEAN_MOTION_DDOT":"0.0000000000000","REV_AT_EPOCH":"1985","INCLINATION":"97.6561","COUNTRY_CODE":"US","OBJECT_NAME":"STARLINK-4368","LAUNCH_DATE":"2022-07-22","TLE_LINE1":"1 53234U 22084AX  22326.77263940  .00002690  00000-0  21395-3 0  9996","EPOCH":"2022-11-22T18:32:36.044160","MEAN_MOTION":"15.01262779","RCS_SIZE":"LARGE","MEAN_MOTION_DOT":"0.00002690","MEAN_ELEMENT_THEORY":"SGP4","ECCENTRICITY":"0.00022090","TIME_SYSTEM":"UTC","ARG_OF_PERICENTER":"57.4267","EPHEMERIS_TYPE":"0","OBJECT_ID":"2022-084AX","TLE_LINE2":"2 53234  97.6561  25.8039 0002209  57.4267 302.7170 15.01262779 19857","SITE":"AFWTR","CLASSIFICATION_TYPE":"U","FILE":"3667517","REF_FRAME":"TEME","APOAPSIS":"564.537","OBJECT_TYPE":"PAYLOAD","ELEMENT_SET_NO":"999","GP_ID":"218506403","RA_OF_ASC_NODE":"25.8039","NORAD_CAT_ID":"53234"},{"ECCENTRICITY":"0.00017120","MEAN_ELEMENT_THEORY":"SGP4","TIME_SYSTEM":"UTC","MEAN_MOTION_DOT":"0.00000664","EPHEMERIS_TYPE":"0","OBJECT_ID":"2022-086A","TLE_LINE2":"2 53242  53.2183 198.8835 0001712  56.4708 303.6448 15.08841187 19723","ARG_OF_PERICENTER":"56.4708","CLASSIFICATION_TYPE":"U","SITE":"AFETR","FILE":"3667517","REF_FRAME":"TEME","RA_OF_ASC_NODE":"198.8835","NORAD_CAT_ID":"53242","APOAPSIS":"540.926","OBJECT_TYPE":"PAYLOAD","GP_ID":"218506074","ELEMENT_SET_NO":"999","PERIOD":"95.437","MEAN_ANOMALY":"303.6448","CENTER_NAME":"EARTH","BSTAR":"0.00005982600000","MEAN_MOTION_DDOT":"0.0000000000000","REV_AT_EPOCH":"1972","INCLINATION":"53.2183","DECAY_DATE":null,"SEMIMAJOR_AXIS":"6917.877","PERIAPSIS":"538.557","LAUNCH_DATE":"2022-07-24","OBJECT_NAME":"STARLINK-4056","TLE_LINE1":"1 53242U 22086A   22326.85113158  .00000664  00000-0  59826-4 0  9991","COUNTRY_CODE":"US","MEAN_MOTION":"15.08841187","RCS_SIZE":"LARGE","EPOCH":"2022-11-22T20:25:37.768512"},{"EPOCH":"2022-11-22T20:26:14.498016","RCS_SIZE":"LARGE","MEAN_MOTION":"15.08842703","COUNTRY_CODE":"US","LAUNCH_DATE":"2022-07-24","OBJECT_NAME":"STARLINK-4047","TLE_LINE1":"1 53243U 22086B   22326.85155669  .00001797  00000-0  13098-3 0  9993","DECAY_DATE":null,"SEMIMAJOR_AXIS":"6917.872","PERIAPSIS":"538.229","PERIOD":"95.437","MEAN_ANOMALY":"315.5100","CENTER_NAME":"EARTH","REV_AT_EPOCH":"1967","MEAN_MOTION_DDOT":"0.0000000000000","BSTAR":"0.00013098000000","INCLINATION":"53.2166","APOAPSIS":"541.245","OBJECT_TYPE":"PAYLOAD","GP_ID":"218506238","ELEMENT_SET_NO":"999","RA_OF_ASC_NODE":"203.8598","NORAD_CAT_ID":"53243","CLASSIFICATION_TYPE":"U","SITE":"AFETR","FILE":"3667517","REF_FRAME":"TEME","ARG_OF_PERICENTER":"44.6067","EPHEMERIS_TYPE":"0","OBJECT_ID":"2022-086B","TLE_LINE2":"2 53243  53.2166 203.8598 0002180  44.6067 315.5100 15.08842703 19671","MEAN_MOTION_DOT":"0.00001797","ECCENTRICITY":"0.00021800","MEAN_ELEMENT_THEORY":"SGP4","TIME_SYSTEM":"UTC"},{"FILE":"3667517","CLASSIFICATION_TYPE":"U","SITE":"AFETR","REF_FRAME":"TEME","APOAPSIS":"541.488","ELEMENT_SET_NO":"999","GP_ID":"218506731","OBJECT_TYPE":"PAYLOAD","RA_OF_ASC_NODE":"203.9194","NORAD_CAT_ID":"53244","MEAN_MOTION_DOT":"0.00000047","ECCENTRICITY":"0.00025110","MEAN_ELEMENT_THEORY":"SGP4","TIME_SYSTEM":"UTC","ARG_OF_PERICENTER":"39.4981","EPHEMERIS_TYPE":"0","TLE_LINE2":"2 53244  53.2163 203.9194 0002511  39.4981 320.6194 15.08838259 19656","OBJECT_ID":"2022-086C","EPOCH":"2022-11-22T20:10:20.744832","MEAN_MOTION":"15.08838259","RCS_SIZE":"LARGE","DECAY_DATE":null,"PERIAPSIS":"538.014","SEMIMAJOR_AXIS":"6917.886","CENTER_NAME":"EARTH","PERIOD":"95.438","MEAN_ANOMALY":"320.6194","BSTAR":"0.00002106500000","MEAN_MOTION_DDOT":"0.0000000000000","REV_AT_EPOCH":"1965","INCLINATION":"53.2163","COUNTRY_CODE":"US","TLE_LINE1":"1 53244U 22086C   22326.84051788  .00000047  00000-0  21065-4 0  9991","OBJECT_NAME":"STARLINK-4125","LAUNCH_DATE":"2022-07-24"},{"MEAN_MOTION_DOT":"0.00001410","TIME_SYSTEM":"UTC","MEAN_ELEMENT_THEORY":"SGP4","ECCENTRICITY":"0.00020430","ARG_OF_PERICENTER":"43.8277","OBJECT_ID":"2022-086D","TLE_LINE2":"2 53245  53.2155 203.8786 0002043  43.8277 316.2877 15.08840123 19675","EPHEMERIS_TYPE":"0","REF_FRAME":"TEME","SITE":"AFETR","CLASSIFICATION_TYPE":"U","FILE":"3667517","OBJECT_TYPE":"PAYLOAD","GP_ID":"218506568","ELEMENT_SET_NO":"999","APOAPSIS":"541.158","NORAD_CAT_ID":"53245","RA_OF_ASC_NODE":"203.8786","SEMIMAJOR_AXIS":"6917.880","PERIAPSIS":"538.332","DECAY_DATE":null,"BSTAR":"0.00010669000000","MEAN_MOTION_DDOT":"0.0000000000000","REV_AT_EPOCH":"1967","INCLINATION":"53.2155","PERIOD":"95.438","MEAN_ANOMALY":"316.2877","CENTER_NAME":"EARTH","COUNTRY_CODE":"US","OBJECT_NAME":"STARLINK-4124","LAUNCH_DATE":"2022-07-24","TLE_LINE1":"1 53245U 22086D   22326.84787102  .00001410  00000-0  10669-3 0  9990","EPOCH":"2022-11-22T20:20:56.056128","MEAN_MOTION":"15.08840123","RCS_SIZE":"LARGE"},{"OBJECT_ID":"2022-086E","TLE_LINE2":"2 53246  53.2156 203.9010 0002589  34.2696 325.8463 15.08845323 18541","EPHEMERIS_TYPE":"0","ARG_OF_PERICENTER":"34.2696","TIME_SYSTEM":"UTC","ECCENTRICITY":"0.00025890","MEAN_ELEMENT_THEORY":"SGP4","MEAN_MOTION_DOT":"0.00000005","NORAD_CAT_ID":"53246","RA_OF_ASC_NODE":"203.9010","OBJECT_TYPE":"PAYLOAD","ELEMENT_SET_NO":"999","GP_ID":"218505747","APOAPSIS":"541.520","REF_FRAME":"TEME","CLASSIFICATION_TYPE":"U","SITE":"AFETR","FILE":"3667517","LAUNCH_DATE":"2022-07-24","OBJECT_NAME":"STARLINK-4131","TLE_LINE1":"1 53246U 22086E   22326.84420017  .00000005  00000-0  18458-4 0  9994","COUNTRY_CODE":"US","REV_AT_EPOCH":"1854","MEAN_MOTION_DDOT":"0.0000000000000","BSTAR":"0.00001845800000","INCLINATION":"53.2156","MEAN_ANOMALY":"325.8463","PERIOD":"95.437","CENTER_NAME":"EARTH","SEMIMAJOR_AXIS":"6917.864","PERIAPSIS":"537.938","DECAY_DATE":null,"MEAN_MOTION":"15.08845323","RCS_SIZE":"LARGE","EPOCH":"2022-11-22T20:15:38.894688"},{"MEAN_MOTION_DDOT":"0.0000000000000","REV_AT_EPOCH":"1972","BSTAR":"0.00005937600000","INCLINATION":"53.2180","CENTER_NAME":"EARTH","MEAN_ANOMALY":"311.3639","PERIOD":"95.438","PERIAPSIS":"538.436","SEMIMAJOR_AXIS":"6917.879","DECAY_DATE":null,"TLE_LINE1":"1 53247U 22086F   22326.84745301  .00000657  00000-0  59376-4 0  9998","OBJECT_NAME":"STARLINK-4061","LAUNCH_DATE":"2022-07-24","COUNTRY_CODE":"US","RCS_SIZE":"LARGE","MEAN_MOTION":"15.08840295","EPOCH":"2022-11-22T20:20:19.940064","TIME_SYSTEM":"UTC","MEAN_ELEMENT_THEORY":"SGP4","ECCENTRICITY":"0.00018910","MEAN_MOTION_DOT":"0.00000657","TLE_LINE2":"2 53247  53.2180 198.9031 0001891  48.7516 311.3639 15.08840295 19720","OBJECT_ID":"2022-086F","EPHEMERIS_TYPE":"0","ARG_OF_PERICENTER":"48.7516","REF_FRAME":"TEME","FILE":"3667517","CLASSIFICATION_TYPE":"U","SITE":"AFETR","NORAD_CAT_ID":"53247","RA_OF_ASC_NODE":"198.9031","ELEMENT_SET_NO":"999","GP_ID":"218505911","OBJECT_TYPE":"PAYLOAD","APOAPSIS":"541.053"},{"EPOCH":"2022-11-22T20:15:01.813536","MEAN_MOTION":"15.08845469","RCS_SIZE":"LARGE","SEMIMAJOR_AXIS":"6917.864","PERIAPSIS":"538.462","DECAY_DATE":null,"MEAN_MOTION_DDOT":"0.0000000000000","INCLINATION":"53.2167","BSTAR":"0.00011054000000","REV_AT_EPOCH":"1972","MEAN_ANOMALY":"301.4890","PERIOD":"95.437","CENTER_NAME":"EARTH","COUNTRY_CODE":"US","OBJECT_NAME":"STARLINK-4135","LAUNCH_DATE":"2022-07-24","TLE_LINE1":"1 53248U 22086G   22326.84377099  .00001472  00000-0  11054-3 0  9990","REF_FRAME":"TEME","CLASSIFICATION_TYPE":"U","SITE":"AFETR","FILE":"3667517","OBJECT_TYPE":"PAYLOAD","ELEMENT_SET_NO":"999","GP_ID":"218506404","APOAPSIS":"540.995","NORAD_CAT_ID":"53248","RA_OF_ASC_NODE":"198.9139","MEAN_MOTION_DOT":"0.00001472","TIME_SYSTEM":"UTC","MEAN_ELEMENT_THEORY":"SGP4","ECCENTRICITY":"0.00018310","ARG_OF_PERICENTER":"58.6281","OBJECT_ID":"2022-086G","TLE_LINE2":"2 53248  53.2167 198.9139 0001831  58.6281 301.4890 15.08845469 19725","EPHEMERIS_TYPE":"0"},{"MEAN_MOTION":"15.08839510","RCS_SIZE":"LARGE","EPOCH":"2022-11-22T20:32:51.734976","TLE_LINE1":"1 53249U 22086H   22326.85615434  .00003118  00000-0  21392-3 0  9995","OBJECT_NAME":"STARLINK-4128","LAUNCH_DATE":"2022-07-24","COUNTRY_CODE":"US","MEAN_MOTION_DDOT":"0.0000000000000","REV_AT_EPOCH":"1949","BSTAR":"0.00021392000000","INCLINATION":"53.2181","CENTER_NAME":"EARTH","PERIOD":"95.438","MEAN_ANOMALY":"317.2594","PERIAPSIS":"538.127","SEMIMAJOR_AXIS":"6917.882","DECAY_DATE":null,"NORAD_CAT_ID":"53249","RA_OF_ASC_NODE":"193.8651","ELEMENT_SET_NO":"999","GP_ID":"218506895","OBJECT_TYPE":"PAYLOAD","APOAPSIS":"541.367","REF_FRAME":"TEME","FILE":"3667517","SITE":"AFETR","CLASSIFICATION_TYPE":"U","TLE_LINE2":"2 53249  53.2181 193.8651 0002342  42.8580 317.2594 15.08839510 19490","OBJECT_ID":"2022-086H","EPHEMERIS_TYPE":"0","ARG_OF_PERICENTER":"42.8580","TIME_SYSTEM":"UTC","ECCENTRICITY":"0.00023420","MEAN_ELEMENT_THEORY":"SGP4","MEAN_MOTION_DOT":"0.00003118"}];
